HST                     
1 20580U 90037B   26164.23141094  .00006133  00000+0  19317-3 0  9993
2 20580  28.4712 107.6084 0001932 101.0971 258.9842 15.30704754787962
POLAR                   
1 23802U 96013A   26164.18585364  .00000143  00000+0  00000+0 0  9999
2 23802  79.8486 227.0990 6466553 209.2175  89.5922  1.29846128144802
SWAS                    
1 25560U 98071A   26164.90144243  .00003378  00000+0  21600-3 0  9991
2 25560  69.8961 235.9926 0008737 263.5115  96.5054 15.09609744496770
CXO                     
1 25867U 99040B   26166.73124906  .00000579  00000+0  00000+0 0  9992
2 25867  56.1776 116.6293 7842889 310.3072   0.0447  0.37804362 17312
XMM-NEWTON              
1 25989U 99066A   26165.35763487  .00000064  00000+0  00000+0 0  9994
2 25989  64.5048 283.0226 4675842  64.9764   0.1205  0.50124916 22995
TERRA                   
1 25994U 99068A   26164.93325542  .00000358  00000+0  81929-4 0  9991
2 25994  97.9457 214.6084 0001328 201.6119 206.0690 14.61100771409139
CLUSTER II-FM7 (SAMBA)  
1 26410U 00041A   26165.90943278  .00008926  00000+0  00000+0 0  9993
2 26410 149.9112  50.5199 9050263 267.6271 359.8755  0.44879327 20296
CLUSTER II-FM8 (TANGO)  
1 26464U 00045B   26163.93586103  .00006615  00000+0  00000+0 0  9990
2 26464 150.1475  51.1959 9055540 268.1324   3.0125  0.44415453 20295
ODIN                    
1 26702U 01007A   26164.85474292  .00190366  00000+0  12713-2 0  9995
2 26702  97.3842 205.5864 0006685 146.6594 213.5093 15.74753031388875
TIMED                   
1 26998U 01055B   26164.93054275  .00001134  00000+0  10650-3 0  9992
2 26998  74.0674 241.5756 0000940 342.1036  18.0116 14.95289073330333
CORIOLIS                
1 27640U 03001A   26164.95578758  .00000088  00000+0  61925-4 0  9998
2 27640  98.7125 171.8899 0013209 218.5680 141.4554 14.19943995213768
SORCE                   
1 27651U 03004A   26164.75242729  .00002846  00000+0  21434-3 0  9991
2 27651  39.9912 281.2748 0016917  23.3384 336.8175 15.03697081271389
MOST                    
1 27843U 03031D   26164.76184400  .00000063  00000+0  49190-4 0  9995
2 27843  98.7045 172.5357 0008690 261.6529  98.3663 14.21321845190223
SCISAT 1                
1 27858U 03036A   26164.37644191  .00000466  00000+0  64217-4 0  9995
2 27858  73.9285 178.9144 0008628 248.3864 111.6394 14.81444219230883
SWIFT                   
1 28485U 04047A   26164.81561906  .00048901  00000+0  41135-3 0  9995
2 28485  20.5521 210.9068 0001738 231.5121 128.5169 15.68026338186339
HINODE (SOLAR-B)        
1 29479U 06041A   26164.91503965  .00000642  00000+0  11872-3 0  9992
2 29479  98.0549 181.1158 0016119 301.0776  58.8847 14.68619083 54392
SHIJIAN-6 02A (SJ-6 02A)
1 29505U 06046A   26164.92528942  .00006300  00000+0  32307-3 0  9993
2 29505  97.6365 205.9666 0004224 133.5890 226.5694 15.16907033 71775
SHIJIAN-6 02B (SJ-6 02B)
1 29506U 06046B   26164.94732983  .00001130  00000+0  92226-4 0  9991
2 29506  97.7163 194.0257 0015200  69.8182 290.4675 15.01368968 70251
FGRST (GLAST)           
1 33053U 08029A   26164.56178240  .00003071  00000+0  10986-3 0  9992
2 33053  25.5812 229.6566 0007579 284.3079  75.6618 15.23933052995285
SDO                     
1 36395U 10005A   26164.30669706 -.00000088  00000+0  00000+0 0  9993
2 36395  34.6434  86.4016 0001673  51.3791 132.2019  1.00270114 60022
CRYOSAT 2               
1 36508U 10013A   26164.91117811  .00000170  00000+0  41449-4 0  9998
2 36508  92.0352 276.5053 0002181  88.1942 271.9515 14.51898108857608
X-SAT                   
1 37389U 11015C   26164.92587464  .00000113  00000+0  65723-4 0  9993
2 37389  98.3501 142.1041 0014203 358.1262   1.9863 14.25205381787211
GCOM-W1 (SHIZUKU)       
1 38337U 12025A   26164.80393182  .00000428  00000+0  10504-3 0  9993
2 38337  98.2022 105.4108 0001811  77.2775 336.4931 14.57121871748548
NUSTAR                  
1 38358U 12031A   26165.00002315  .00010294  00000+0  58209-3 0  9997
2 38358   6.0268  58.0257 0006948  58.8516 310.7262 15.08772287  1300
NEOSSAT                 
1 39089U 13009D   26164.93424763  .00000138  00000+0  62314-4 0  9990
2 39089  98.4175 345.0443 0009815 254.6915 105.3187 14.35825389696276
BRITE-AUSTRIA           
1 39091U 13009F   26164.93449253  .00000159  00000+0  68644-4 0  9999
2 39091  98.3993 344.4507 0009039 247.4517 112.5714 14.36540938696581
IRIS                    
1 39197U 13033A   26164.79782667  .00001000  00000+0  12062-3 0  9994
2 39197  97.9332   4.0856 0023788 333.2772  26.7216 14.85879320699872
HISAKI (SPRINT-A)       
1 39253U 13049A   26164.88813108  .00000139  00000+0  10130-3 0  9995
2 39253  29.7190 236.7863 0136881 350.1099   9.6792 13.55544473630970
CASSIOPE                
1 39265U 13055A   26164.81587448  .00048430 -44779-6  53049-3 0  9994
2 39265  80.9157  70.8148 0293947  73.7607 289.5747 15.24889463667156
STSAT-3                 
1 39422U 13066G   26164.91663697  .00003739  00000+0  28397-3 0  9995
2 39422  97.6211 134.8569 0011158  53.3974 306.8276 15.02740794683717
SWARM B                 
1 39451U 13067A   26164.92594358  .00003313  00000+0  11815-3 0  9991
2 39451  87.7433 343.3079 0003358  88.1801 271.9833 15.28533418682740
